ONEWEB-0639             
1 55803U 23029H   25261.83524538  .00000012  00000+0 -34259-5 0  9992
2 55803  87.9288 358.9478 0000872 129.1877 230.9333 13.19725131123115
ONEWEB-0640             
1 55804U 23029J   25262.19491102  .00000003  00000+0 -26798-4 0  9991
2 55804  87.9084 343.7158 0001431  80.0031 280.1260 13.14504017123812
ONEWEB-0641             
1 55805U 23029K   25262.20958637  .00000114  00000+0  25169-3 0  9997
2 55805  87.9291 358.8472 0001628 104.6499 255.4814 13.19724844123174
ONEWEB-0642             
1 55806U 23029L   25262.20484889  .00000106  00000+0  23248-3 0  9998
2 55806  87.9272 358.8824 0001241 127.9632 232.1613 13.19726084123169
ONEWEB-0643             
1 55807U 23029M   25261.70805561 -.00000074  00000+0 -23465-3 0  9994
2 55807  87.9076 343.7983 0001708 111.8146 248.3166 13.14505392123727
ONEWEB-0644             
1 55808U 23029N   25262.20011852  .00000083  00000+0  17561-3 0  9991
2 55808  87.9282 358.8903 0001464 114.1658 245.9628 13.19725737123165
ONEWEB-0645             
1 55809U 23029P   25262.19615236  .00000081  00000+0  16953-3 0  9998
2 55809  87.9275 358.8764 0001505  96.4568 263.6736 13.19727646123169
ONEWEB-0646             
1 55810U 23029Q   25262.23952630  .00000088  00000+0  18759-3 0  9990
2 55810  87.9279 358.8661 0001657 107.4979 252.6335 13.19723385123156
ONEWEB-0648             
1 55811U 23029R   25261.75250256  .00000128  00000+0  31104-3 0  9996
2 55811  87.9067 343.7574 0000875 110.6108 249.5116 13.14497446123736
ONEWEB-0649             
1 55812U 23029S   25262.26487482  .00000036  00000+0  58258-4 0  9995
2 55812  87.9288 358.8529 0001350 104.2455 255.8828 13.19726270123197
ONEWEB-0650             
1 55813U 23029T   25261.80522737 -.00000191  00000+0 -50949-3 0  9990
2 55813  87.9285 358.9546 0001680 103.8529 256.2791 13.19724572123106
ONEWEB-0652             
1 55814U 23029U   25262.19015175 -.00000108  00000+0 -32586-3 0  9992
2 55814  87.9085 343.6856 0002041  99.6856 260.4504 13.14504531123764
ONEWEB-0653             
1 55815U 23029V   25261.79369476 -.00000179  00000+0 -51825-3 0  9999
2 55815  87.9086 343.7544 0001953  93.5873 266.5480 13.14504781123749
ONEWEB-0654             
1 55816U 23029W   25262.16953317 -.00000080  00000+0 -25061-3 0  9999
2 55816  87.9088 343.6777 0002159  96.9413 263.1962 13.14502546123818
ONEWEB-0656             
1 55817U 23029X   25261.69174672  .00000040  00000+0  65680-4 0  9992
2 55817  87.9276 328.5536 0002363  92.6314 267.5090 13.20769208125317
ONEWEB-0657             
1 55818U 23029Y   25262.25539782 -.00000049  00000+0 -15475-3 0  9990
2 55818  87.9274 358.8709 0002530 112.5553 247.5848 13.19723557123173
