[{"OBJECT_NAME":"ONEWEB-0639","OBJECT_ID":"2023-029H","EPOCH":"2025-09-18T20:02:45.200832","MEAN_MOTION":13.19725131,"ECCENTRICITY":8.723e-5,"INCLINATION":87.9288,"RA_OF_ASC_NODE":358.9478,"ARG_OF_PERICENTER":129.1877,"MEAN_ANOMALY":230.9333,"EPHEMERIS_TYPE":0,"CLASSIFICATION_TYPE":"U","NORAD_CAT_ID":55803,"ELEMENT_SET_NO":999,"REV_AT_EPOCH":12311,"BSTAR":-3.425922e-6,"MEAN_MOTION_DOT":1.2e-7,"MEAN_MOTION_DDOT":0},{"OBJECT_NAME":"ONEWEB-0640","OBJECT_ID":"2023-029J","EPOCH":"2025-09-19T04:40:40.312128","MEAN_MOTION":13.14504017,"ECCENTRICITY":0.00014318,"INCLINATION":87.9084,"RA_OF_ASC_NODE":343.7158,"ARG_OF_PERICENTER":80.0031,"MEAN_ANOMALY":280.126,"EPHEMERIS_TYPE":0,"CLASSIFICATION_TYPE":"U","NORAD_CAT_ID":55804,"ELEMENT_SET_NO":999,"REV_AT_EPOCH":12381,"BSTAR":-2.6798015e-5,"MEAN_MOTION_DOT":3.0e-8,"MEAN_MOTION_DDOT":0},{"OBJECT_NAME":"ONEWEB-0641","OBJECT_ID":"2023-029K","EPOCH":"2025-09-19T05:01:48.262368","MEAN_MOTION":13.19724844,"ECCENTRICITY":0.00016286,"INCLINATION":87.9291,"RA_OF_ASC_NODE":358.8472,"ARG_OF_PERICENTER":104.6499,"MEAN_ANOMALY":255.4814,"EPHEMERIS_TYPE":0,"CLASSIFICATION_TYPE":"U","NORAD_CAT_ID":55805,"ELEMENT_SET_NO":999,"REV_AT_EPOCH":12317,"BSTAR":0.00025169168,"MEAN_MOTION_DOT":1.14e-6,"MEAN_MOTION_DDOT":0},{"OBJECT_NAME":"ONEWEB-0642","OBJECT_ID":"2023-029L","EPOCH":"2025-09-19T04:54:58.944096","MEAN_MOTION":13.19726084,"ECCENTRICITY":0.00012412,"INCLINATION":87.9272,"RA_OF_ASC_NODE":358.8824,"ARG_OF_PERICENTER":127.9632,"MEAN_ANOMALY":232.1613,"EPHEMERIS_TYPE":0,"CLASSIFICATION_TYPE":"U","NORAD_CAT_ID":55806,"ELEMENT_SET_NO":999,"REV_AT_EPOCH":12316,"BSTAR":0.00023247995,"MEAN_MOTION_DOT":1.06e-6,"MEAN_MOTION_DDOT":0},{"OBJECT_NAME":"ONEWEB-0643","OBJECT_ID":"2023-029M","EPOCH":"2025-09-18T16:59:36.004704","MEAN_MOTION":13.14505392,"ECCENTRICITY":0.00017085,"INCLINATION":87.9076,"RA_OF_ASC_NODE":343.7983,"ARG_OF_PERICENTER":111.8146,"MEAN_ANOMALY":248.3166,"EPHEMERIS_TYPE":0,"CLASSIFICATION_TYPE":"U","NORAD_CAT_ID":55807,"ELEMENT_SET_NO":999,"REV_AT_EPOCH":12372,"BSTAR":-0.00023465355,"MEAN_MOTION_DOT":-7.4e-7,"MEAN_MOTION_DDOT":0},{"OBJECT_NAME":"ONEWEB-0644","OBJECT_ID":"2023-029N","EPOCH":"2025-09-19T04:48:10.240128","MEAN_MOTION":13.19725737,"ECCENTRICITY":0.00014649,"INCLINATION":87.9282,"RA_OF_ASC_NODE":358.8903,"ARG_OF_PERICENTER":114.1658,"MEAN_ANOMALY":245.9628,"EPHEMERIS_TYPE":0,"CLASSIFICATION_TYPE":"U","NORAD_CAT_ID":55808,"ELEMENT_SET_NO":999,"REV_AT_EPOCH":12316,"BSTAR":0.00017561077,"MEAN_MOTION_DOT":8.3e-7,"MEAN_MOTION_DDOT":0},{"OBJECT_NAME":"ONEWEB-0645","OBJECT_ID":"2023-029P","EPOCH":"2025-09-19T04:42:27.563904","MEAN_MOTION":13.19727646,"ECCENTRICITY":0.00015052,"INCLINATION":87.9275,"RA_OF_ASC_NODE":358.8764,"ARG_OF_PERICENTER":96.4568,"MEAN_ANOMALY":263.6736,"EPHEMERIS_TYPE":0,"CLASSIFICATION_TYPE":"U","NORAD_CAT_ID":55809,"ELEMENT_SET_NO":999,"REV_AT_EPOCH":12316,"BSTAR":0.0001695267,"MEAN_MOTION_DOT":8.1e-7,"MEAN_MOTION_DDOT":0},{"OBJECT_NAME":"ONEWEB-0646","OBJECT_ID":"2023-029Q","EPOCH":"2025-09-19T05:44:55.072320","MEAN_MOTION":13.19723385,"ECCENTRICITY":0.00016571,"INCLINATION":87.9279,"RA_OF_ASC_NODE":358.8661,"ARG_OF_PERICENTER":107.4979,"MEAN_ANOMALY":252.6335,"EPHEMERIS_TYPE":0,"CLASSIFICATION_TYPE":"U","NORAD_CAT_ID":55810,"ELEMENT_SET_NO":999,"REV_AT_EPOCH":12315,"BSTAR":0.00018758624,"MEAN_MOTION_DOT":8.8e-7,"MEAN_MOTION_DDOT":0},{"OBJECT_NAME":"ONEWEB-0648","OBJECT_ID":"2023-029R","EPOCH":"2025-09-18T18:03:36.221184","MEAN_MOTION":13.14497446,"ECCENTRICITY":8.75e-5,"INCLINATION":87.9067,"RA_OF_ASC_NODE":343.7574,"ARG_OF_PERICENTER":110.6108,"MEAN_ANOMALY":249.5116,"EPHEMERIS_TYPE":0,"CLASSIFICATION_TYPE":"U","NORAD_CAT_ID":55811,"ELEMENT_SET_NO":999,"REV_AT_EPOCH":12373,"BSTAR":0.00031104319,"MEAN_MOTION_DOT":1.28e-6,"MEAN_MOTION_DDOT":0},{"OBJECT_NAME":"ONEWEB-0649","OBJECT_ID":"2023-029S","EPOCH":"2025-09-19T06:21:25.184448","MEAN_MOTION":13.1972627,"ECCENTRICITY":0.00013503,"INCLINATION":87.9288,"RA_OF_ASC_NODE":358.8529,"ARG_OF_PERICENTER":104.2455,"MEAN_ANOMALY":255.8828,"EPHEMERIS_TYPE":0,"CLASSIFICATION_TYPE":"U","NORAD_CAT_ID":55812,"ELEMENT_SET_NO":999,"REV_AT_EPOCH":12319,"BSTAR":5.8257534e-5,"MEAN_MOTION_DOT":3.6e-7,"MEAN_MOTION_DDOT":0},{"OBJECT_NAME":"ONEWEB-0650","OBJECT_ID":"2023-029T","EPOCH":"2025-09-18T19:19:31.644768","MEAN_MOTION":13.19724572,"ECCENTRICITY":0.00016805,"INCLINATION":87.9285,"RA_OF_ASC_NODE":358.9546,"ARG_OF_PERICENTER":103.8529,"MEAN_ANOMALY":256.2791,"EPHEMERIS_TYPE":0,"CLASSIFICATION_TYPE":"U","NORAD_CAT_ID":55813,"ELEMENT_SET_NO":999,"REV_AT_EPOCH":12310,"BSTAR":-0.0005094908,"MEAN_MOTION_DOT":-1.91e-6,"MEAN_MOTION_DDOT":0},{"OBJECT_NAME":"ONEWEB-0652","OBJECT_ID":"2023-029U","EPOCH":"2025-09-19T04:33:49.111200","MEAN_MOTION":13.14504531,"ECCENTRICITY":0.00020416,"INCLINATION":87.9085,"RA_OF_ASC_NODE":343.6856,"ARG_OF_PERICENTER":99.6856,"MEAN_ANOMALY":260.4504,"EPHEMERIS_TYPE":0,"CLASSIFICATION_TYPE":"U","NORAD_CAT_ID":55814,"ELEMENT_SET_NO":999,"REV_AT_EPOCH":12376,"BSTAR":-0.00032585784,"MEAN_MOTION_DOT":-1.08e-6,"MEAN_MOTION_DDOT":0},{"OBJECT_NAME":"ONEWEB-0653","OBJECT_ID":"2023-029V","EPOCH":"2025-09-18T19:02:55.227264","MEAN_MOTION":13.14504781,"ECCENTRICITY":0.00019531,"INCLINATION":87.9086,"RA_OF_ASC_NODE":343.7544,"ARG_OF_PERICENTER":93.5873,"MEAN_ANOMALY":266.548,"EPHEMERIS_TYPE":0,"CLASSIFICATION_TYPE":"U","NORAD_CAT_ID":55815,"ELEMENT_SET_NO":999,"REV_AT_EPOCH":12374,"BSTAR":-0.0005182542,"MEAN_MOTION_DOT":-1.79e-6,"MEAN_MOTION_DDOT":0},{"OBJECT_NAME":"ONEWEB-0654","OBJECT_ID":"2023-029W","EPOCH":"2025-09-19T04:04:07.665888","MEAN_MOTION":13.14502546,"ECCENTRICITY":0.00021595,"INCLINATION":87.9088,"RA_OF_ASC_NODE":343.6777,"ARG_OF_PERICENTER":96.9413,"MEAN_ANOMALY":263.1962,"EPHEMERIS_TYPE":0,"CLASSIFICATION_TYPE":"U","NORAD_CAT_ID":55816,"ELEMENT_SET_NO":999,"REV_AT_EPOCH":12381,"BSTAR":-0.00025060642,"MEAN_MOTION_DOT":-8.0e-7,"MEAN_MOTION_DDOT":0},{"OBJECT_NAME":"ONEWEB-0656","OBJECT_ID":"2023-029X","EPOCH":"2025-09-18T16:36:06.916608","MEAN_MOTION":13.20769208,"ECCENTRICITY":0.0002363,"INCLINATION":87.9276,"RA_OF_ASC_NODE":328.5536,"ARG_OF_PERICENTER":92.6314,"MEAN_ANOMALY":267.509,"EPHEMERIS_TYPE":0,"CLASSIFICATION_TYPE":"U","NORAD_CAT_ID":55817,"ELEMENT_SET_NO":999,"REV_AT_EPOCH":12531,"BSTAR":6.5680139e-5,"MEAN_MOTION_DOT":4.0e-7,"MEAN_MOTION_DDOT":0},{"OBJECT_NAME":"ONEWEB-0657","OBJECT_ID":"2023-029Y","EPOCH":"2025-09-19T06:07:46.371648","MEAN_MOTION":13.19723557,"ECCENTRICITY":0.000253,"INCLINATION":87.9274,"RA_OF_ASC_NODE":358.8709,"ARG_OF_PERICENTER":112.5553,"MEAN_ANOMALY":247.5848,"EPHEMERIS_TYPE":0,"CLASSIFICATION_TYPE":"U","NORAD_CAT_ID":55818,"ELEMENT_SET_NO":999,"REV_AT_EPOCH":12317,"BSTAR":-0.0001547504,"MEAN_MOTION_DOT":-4.9e-7,"MEAN_MOTION_DDOT":0}]
